{"type":"FeatureCollection","features":[{"type":"Feature","properties":{"id":0,"name":"Pretonia","type":"River","dischargeFactor":null,"width":0.09,"parent":2},"geometry":{"type":"LineString","coordinates":[[3306,3152],[3150,3084],[3161,3195],[3213,3256],[3120,2930]]}},{"type":"Feature","properties":{"id":1,"name":"Seibeirania","type":"River","dischargeFactor":null,"width":0.1,"parent":3},"geometry":{"type":"LineString","coordinates":[[1749,1522],[1799,1664],[1733,1672],[1782,1412],[1722,1542],[1448,1410]]}},{"type":"Feature","properties":{"id":2,"name":"Biti","type":"River","dischargeFactor":null,"width":0.14,"parent":71},"geometry":{"type":"LineString","coordinates":[[2873,2739],[2769,2690],[2892,2759],[2721,2580],[2908,2757],[2719,2549],[2822,2719],[2966,2823],[2967,2785],[2633,2763],[2714,2634],[3042,2715],[2648,2761],[2874,2600],[2865,2587],[2718,2591],[2712,2517],[2783,2598],[2636,2707]]}},{"type":"Feature","properties":{"id":3,"name":"Contiana","type":"River","dischargeFactor":null,"width":0.1,"parent":6},"geometry":{"type":"LineString","coordinates":[[2538,2568],[2728,2388],[2403,2266],[2458,2264],[2684,2420]]}},{"type":"Feature","properties":{"id":4,"name":"Legiumpoce","type":"River","dischargeFactor":null,"width":0.09,"parent":7},"geometry":{"type":"LineString","coordinates":[[2448,2523],[2468,2327],[2455,2219],[2116,2114],[2206,1986],[2156,2276]]}},{"type":"Feature","properties":{"id":5,"name":"Plabis","type":"River","dischargeFactor":null,"width":0.09,"parent":8},"geometry":{"type":"LineString","coordinates":[[3342,3118],[3117,3014],[3264,3105],[3325,2852],[3120,2930]]}},{"type":"Feature","properties":{"id":6,"name":"Castat","type":"River","dischargeFactor":null,"width":0.1,"parent":9},"geometry":{"type":"LineString","coordinates":[[2990,2873],[2874,2925],[2782,2983],[3019,2938],[3250,3022]]}},{"type":"Feature","properties":{"id":7,"name":"Iupinum","type":"River","dischargeFactor":null,"width":0.12,"parent":11},"geometry":{"type":"LineString","coordinates":[[3488,3340],[3463,3338],[3445,3446],[3334,3459],[3590,3385],[3751,3553]]}},{"type":"Feature","properties":{"id":8,"name":"Vinsium","type":"Fork","dischargeFactor":null,"width":0.03,"parent":9},"geometry":{"type":"LineString","coordinates":[[3165,3013],[3229,3020],[3019,2938]]}},{"type":"Feature","properties":{"id":9,"name":"Ulbium","type":"River","dischargeFactor":null,"width":0.11,"parent":13},"geometry":{"type":"LineString","coordinates":[[1623,1972],[1922,1871],[1900,1954],[2209,2386],[2092,1924],[2156,2276]]}},{"type":"Feature","properties":{"id":10,"name":"Lugripica","type":"River","dischargeFactor":null,"width":0.11,"parent":14},"geometry":{"type":"LineString","coordinates":[[2789,2915],[2847,2728],[2255,2076],[2829,3007],[3250,3022]]}},{"type":"Feature","properties":{"id":11,"name":"Dinium","type":"River","dischargeFactor":null,"width":0.11,"parent":15},"geometry":{"type":"LineString","coordinates":[[2702,2786],[2705,2527],[2607,2442],[2684,2420]]}},{"type":"Feature","properties":{"id":12,"name":"Silhoso","type":"River","dischargeFactor":null,"width":0.08,"parent":16},"geometry":{"type":"LineString","coordinates":[[1460,1393],[1463,1493],[1576,1727],[1448,1410]]}},{"type":"Feature","properties":{"id":13,"name":"Stotleby","type":"River","dischargeFactor":null,"width":0.03,"parent":18},"geometry":{"type":"LineString","coordinates":[[4738,4574],[4979,4851],[5243,5189]]}},{"type":"Feature","properties":{"id":14,"name":"Confluenna","type":"River","dischargeFactor":null,"width":0.08,"parent":21},"geometry":{"type":"LineString","coordinates":[[3653,3877],[3951,3823],[4181,3892],[3818,3678]]}},{"type":"Feature","properties":{"id":15,"name":"Sollalur","type":"River","dischargeFactor":null,"width":0.12,"parent":22},"geometry":{"type":"LineString","coordinates":[[1068,992],[1077,1006],[965,1059],[1036,858],[825,824],[755,672],[769,650],[776,582],[520,457],[484,580],[499,498],[440,474]]}},{"type":"Feature","properties":{"id":16,"name":"Stansted","type":"Brook","dischargeFactor":null,"width":0.02,"parent":23},"geometry":{"type":"LineString","coordinates":[[4754,4623],[5131,4832],[5057,4593]]}},{"type":"Feature","properties":{"id":17,"name":"Gecormolo","type":"River","dischargeFactor":null,"width":0.11,"parent":24},"geometry":{"type":"LineString","coordinates":[[1114,1081],[1034,923],[960,968],[782,765],[861,771],[716,772],[581,445],[511,524]]}},{"type":"Feature","properties":{"id":18,"name":"Brinestolirol","type":"River","dischargeFactor":null,"width":0.08,"parent":25},"geometry":{"type":"LineString","coordinates":[[2563,2507],[2391,2333],[2557,2432],[2575,2363],[2544,2345]]}},{"type":"Feature","properties":{"id":19,"name":"Rouvray","type":"River","dischargeFactor":null,"width":0.11,"parent":26},"geometry":{"type":"LineString","coordinates":[[3140,2958],[2957,2847],[3207,2956],[3364,3052],[3249,3061],[3210,3103],[3209,2962],[2519,3026]]}},{"type":"Feature","properties":{"id":20,"name":"Hertester","type":"River","dischargeFactor":null,"width":0.17,"parent":27},"geometry":{"type":"LineString","coordinates":[[4544,4260],[4542,4262],[4576,4330],[4332,4416],[4459,4065],[4458,4065],[4127,4229],[4074,4154],[4074,3871],[4031,4231]]}},{"type":"Feature","properties":{"id":21,"name":"Grada","type":"River","dischargeFactor":null,"width":0.07,"parent":28},"geometry":{"type":"LineString","coordinates":[[798,780],[722,601],[639,653],[409,788],[423,581]]}},{"type":"Feature","properties":{"id":22,"name":"Lepsaki","type":"River","dischargeFactor":null,"width":0.07,"parent":30},"geometry":{"type":"LineString","coordinates":[[4233,4037],[4407,4458],[4163,4000],[4265,4204],[4292,4165],[4688,4250]]}},{"type":"Feature","properties":{"id":23,"name":"Bucham","type":"River","dischargeFactor":null,"width":0.03,"parent":27},"geometry":{"type":"LineString","coordinates":[[4589,4572],[4514,4180],[4459,4065]]}},{"type":"Feature","properties":{"id":24,"name":"Horndoli","type":"River","dischargeFactor":null,"width":0.04,"parent":36},"geometry":{"type":"LineString","coordinates":[[5112,4803],[5061,4913],[5335,5175]]}},{"type":"Feature","properties":{"id":25,"name":"Marcurixus","type":"River","dischargeFactor":null,"width":0.03,"parent":37},"geometry":{"type":"LineString","coordinates":[[2483,2467],[2627,2505],[2692,2425]]}},{"type":"Feature","properties":{"id":26,"name":"Vivateneli","type":"Brook","dischargeFactor":null,"width":0.02,"parent":38},"geometry":{"type":"LineString","coordinates":[[1105,1073],[1105,1085],[1113,1261]]}},{"type":"Feature","properties":{"id":27,"name":"Dunsted","type":"River","dischargeFactor":null,"width":0.07,"parent":27},"geometry":{"type":"LineString","coordinates":[[4418,3927],[4072,3908],[4225,3759],[4088,3729],[3962,3715],[4154,3775],[4074,4154]]}},{"type":"Feature","properties":{"id":28,"name":"Silheiras","type":"River","dischargeFactor":null,"width":0.08,"parent":44},"geometry":{"type":"LineString","coordinates":[[588,565],[676,708],[702,629],[484,477],[495,425],[446,342],[358,392]]}},{"type":"Feature","properties":{"id":29,"name":"Ducavinis","type":"River","dischargeFactor":null,"width":0.08,"parent":45},"geometry":{"type":"LineString","coordinates":[[3703,3520],[3922,3667],[3666,3564],[3761,3670]]}},{"type":"Feature","properties":{"id":30,"name":"Aureba","type":"River","dischargeFactor":null,"width":0.03,"parent":46},"geometry":{"type":"LineString","coordinates":[[1959,2042],[2184,1876],[1996,1767]]}},{"type":"Feature","properties":{"id":31,"name":"Corsoducus","type":"River","dischargeFactor":null,"width":0.08,"parent":50},"geometry":{"type":"LineString","coordinates":[[4262,3989],[4513,4153],[4473,4304],[4572,4394],[4603,4799],[4853,4696],[5015,4741]]}},{"type":"Feature","properties":{"id":32,"name":"Eusondum","type":"River","dischargeFactor":null,"width":0.08,"parent":52},"geometry":{"type":"LineString","coordinates":[[3989,3863],[4408,4054],[3842,3975],[3893,4055]]}},{"type":"Feature","properties":{"id":33,"name":"Bucking","type":"Brook","dischargeFactor":null,"width":0.02,"parent":53},"geometry":{"type":"LineString","coordinates":[[4337,4171],[4213,3741],[3951,4202]]}},{"type":"Feature","properties":{"id":34,"name":"Plaraularia","type":"River","dischargeFactor":null,"width":0.02,"parent":54},"geometry":{"type":"LineString","coordinates":[[4194,3919],[4141,3742],[4186,3641]]}},{"type":"Feature","properties":{"id":35,"name":"Tithos","type":"River","dischargeFactor":null,"width":0.09,"parent":61},"geometry":{"type":"LineString","coordinates":[[4190,3996],[4520,4234],[4569,4312],[4570,4413],[4728,4299],[4700,4390],[4819,4936],[4816,4684]]}},{"type":"Feature","properties":{"id":36,"name":"Opeid","type":"River","dischargeFactor":null,"width":0.08,"parent":62},"geometry":{"type":"LineString","coordinates":[[336,262],[415,337],[269,287],[286,270]]}},{"type":"Feature","properties":{"id":37,"name":"Doveria","type":"River","dischargeFactor":null,"width":0.08,"parent":63},"geometry":{"type":"LineString","coordinates":[[4303,3992],[4305,4162],[7619,4205],[4688,4250]]}},{"type":"Feature","properties":{"id":38,"name":"Cleoliver","type":"River","dischargeFactor":null,"width":0.08,"parent":64},"geometry":{"type":"LineString","coordinates":[[4448,3867],[4228,4016],[3990,3760],[3878,3879],[4036,3750]]}},{"type":"Feature","properties":{"id":39,"name":"Codulum","type":"River","dischargeFactor":null,"width":0.03,"parent":65},"geometry":{"type":"LineString","coordinates":[[3405,3442],[3563,3231],[3488,3155]]}},{"type":"Feature","properties":{"id":40,"name":"Oroz","type":"River","dischargeFactor":null,"width":0.24,"parent":71},"geometry":{"type":"LineString","coordinates":[[2519,2415],[2786,3023],[2774,2615],[2701,2622],[3023,2702],[2994,2805],[2932,2705],[2899,2854],[3057,3114],[3152,2913],[2865,2778],[2982,2776],[2892,2993],[2787,2721],[2925,2605],[3186,2860]]}},{"type":"Feature","properties":{"id":41,"name":"Schal","type":"River","dischargeFactor":null,"width":0.16,"parent":72},"geometry":{"type":"LineString","coordinates":[[1121,1011],[934,740],[800,705],[736,675],[667,662],[657,673],[598,488],[560,441],[467,358],[377,319],[544,378]]}},{"type":"Feature","properties":{"id":42,"name":"Codubacum","type":"River","dischargeFactor":null,"width":0.1,"parent":73},"geometry":{"type":"LineString","coordinates":[[4413,4570],[4308,4062],[4748,4344],[4829,4399],[4649,4384],[4545,4090],[4503,4583]]}},{"type":"Feature","properties":{"id":43,"name":"Utsberg","type":"River","dischargeFactor":null,"width":0.1,"parent":74},"geometry":{"type":"LineString","coordinates":[[367,275],[216,248],[264,199],[235,170],[230,194]]}},{"type":"Feature","properties":{"id":44,"name":"Thesonna","type":"River","dischargeFactor":null,"width":0.07,"parent":75},"geometry":{"type":"LineString","coordinates":[[4822,4566],[4825,4775],[4801,4606],[4611,4947]]}},{"type":"Feature","properties":{"id":45,"name":"Gladstad","type":"River","dischargeFactor":null,"width":0.07,"parent":76},"geometry":{"type":"LineString","coordinates":[[707,610],[538,478],[527,420],[412,360]]}},{"type":"Feature","properties":{"id":46,"name":"Talemica","type":"River","dischargeFactor":null,"width":0.05,"parent":77},"geometry":{"type":"LineString","coordinates":[[4139,4067],[4540,4264],[4287,4289]]}},{"type":"Feature","properties":{"id":47,"name":"Lavoeiliapo","type":"River","dischargeFactor":null,"width":0.03,"parent":78},"geometry":{"type":"LineString","coordinates":[[771,719],[744,586],[671,519]]}},{"type":"Feature","properties":{"id":48,"name":"Zegikabalda","type":"Brook","dischargeFactor":null,"width":0.02,"parent":80},"geometry":{"type":"LineString","coordinates":[[2219,2211],[3089,2398],[2257,2209]]}},{"type":"Feature","properties":{"id":49,"name":"Pseiceapo","type":"River","dischargeFactor":null,"width":0.03,"parent":81},"geometry":{"type":"LineString","coordinates":[[3783,3945],[3975,3787],[3826,3729]]}},{"type":"Feature","properties":{"id":50,"name":"Confluendi","type":"River","dischargeFactor":null,"width":0.06,"parent":82},"geometry":{"type":"LineString","coordinates":[[2758,2515],[2697,2670],[2764,2814]]}},{"type":"Feature","properties":{"id":51,"name":"Schombergin","type":"River","dischargeFactor":null,"width":0.04,"parent":86},"geometry":{"type":"LineString","coordinates":[[956,890],[829,778],[829,891]]}},{"type":"Feature","properties":{"id":52,"name":"Chiscom","type":"Creek","dischargeFactor":null,"width":0.01,"parent":87},"geometry":{"type":"LineString","coordinates":[[2170,1856],[2034,1770],[1734,1655]]}},{"type":"Feature","properties":{"id":53,"name":"Amphidros","type":"River","dischargeFactor":null,"width":0.03,"parent":88},"geometry":{"type":"LineString","coordinates":[[4110,3843],[4328,3810],[4206,3970]]}},{"type":"Feature","properties":{"id":54,"name":"Higosthos","type":"River","dischargeFactor":null,"width":0.04,"parent":89},"geometry":{"type":"LineString","coordinates":[[3997,3593],[3499,3161],[3708,3547]]}},{"type":"Feature","properties":{"id":55,"name":"Vilbium","type":"River","dischargeFactor":null,"width":0.05,"parent":90},"geometry":{"type":"LineString","coordinates":[[4276,4135],[4441,4719],[4480,4403]]}},{"type":"Feature","properties":{"id":56,"name":"Castrinch","type":"Creek","dischargeFactor":null,"width":0.03,"parent":92},"geometry":{"type":"LineString","coordinates":[[4483,4398],[4734,4248],[4561,4586]]}},{"type":"Feature","properties":{"id":57,"name":"Hendonbeck","type":"River","dischargeFactor":null,"width":0.03,"parent":93},"geometry":{"type":"LineString","coordinates":[[4688,4749],[4920,4708],[4667,4746]]}},{"type":"Feature","properties":{"id":58,"name":"Thetford","type":"Creek","dischargeFactor":null,"width":0.02,"parent":94},"geometry":{"type":"LineString","coordinates":[[5004,4793],[4945,4787],[5155,5005]]}},{"type":"Feature","properties":{"id":59,"name":"Ercelle","type":"River","dischargeFactor":null,"width":0.09,"parent":103},"geometry":{"type":"LineString","coordinates":[[3327,3108],[3419,3696],[3696,3341],[3274,3164],[3332,3445],[3464,3239]]}},{"type":"Feature","properties":{"id":60,"name":"Bruvogdak","type":"River","dischargeFactor":null,"width":0.08,"parent":105},"geometry":{"type":"LineString","coordinates":[[205,181],[187,142],[120,92],[69,74]]}},{"type":"Feature","properties":{"id":61,"name":"Vopeid","type":"River","dischargeFactor":null,"width":0.08,"parent":106},"geometry":{"type":"LineString","coordinates":[[395,334],[449,350],[242,201],[213,152],[214,147]]}},{"type":"Feature","properties":{"id":62,"name":"Toreirao","type":"River","dischargeFactor":null,"width":0.07,"parent":107},"geometry":{"type":"LineString","coordinates":[[590,680],[546,654],[429,352],[418,345]]}},{"type":"Feature","properties":{"id":63,"name":"Calelopo","type":"River","dischargeFactor":null,"width":0.08,"parent":108},"geometry":{"type":"LineString","coordinates":[[4583,4347],[4662,4689],[4302,4869],[4815,4595]]}},{"type":"Feature","properties":{"id":64,"name":"Ciambupo","type":"River","dischargeFactor":null,"width":0.07,"parent":109},"geometry":{"type":"LineString","coordinates":[[870,787],[689,642],[723,743],[593,505]]}},{"type":"Feature","properties":{"id":65,"name":"Duvoribanis","type":"River","dischargeFactor":null,"width":0.02,"parent":110},"geometry":{"type":"LineString","coordinates":[[4964,4672],[4695,4619],[5015,4741]]}},{"type":"Feature","properties":{"id":66,"name":"Durnove","type":"River","dischargeFactor":null,"width":0.07,"parent":111},"geometry":{"type":"LineString","coordinates":[[4420,4204],[4607,4436],[4722,4660],[4902,4909]]}},{"type":"Feature","properties":{"id":67,"name":"Aunium","type":"River","dischargeFactor":null,"width":0.03,"parent":113},"geometry":{"type":"LineString","coordinates":[[3555,3451],[3453,3661],[3579,3803]]}},{"type":"Feature","properties":{"id":68,"name":"Calsea","type":"River","dischargeFactor":null,"width":0.04,"parent":114},"geometry":{"type":"LineString","coordinates":[[4774,4658],[4983,5063],[5161,4845]]}},{"type":"Feature","properties":{"id":69,"name":"Flokhamber","type":"River","dischargeFactor":null,"width":0.07,"parent":115},"geometry":{"type":"LineString","coordinates":[[5269,5013],[5109,5243],[5343,5069]]}},{"type":"Feature","properties":{"id":70,"name":"Karlshut","type":"River","dischargeFactor":null,"width":0.1,"parent":125},"geometry":{"type":"LineString","coordinates":[[1166,906],[1209,1016],[1310,1112],[920,862],[916,856]]}},{"type":"Feature","properties":{"id":71,"name":"Saudageid","type":"River","dischargeFactor":null,"width":0.09,"parent":126},"geometry":{"type":"LineString","coordinates":[[246,232],[253,250],[141,146],[114,68],[67,77]]}},{"type":"Feature","properties":{"id":72,"name":"March","type":"River","dischargeFactor":null,"width":0.09,"parent":127},"geometry":{"type":"LineString","coordinates":[[817,699],[654,807],[714,547],[559,468],[469,543]]}},{"type":"Feature","properties":{"id":73,"name":"Braston","type":"River","dischargeFactor":null,"width":0.08,"parent":128},"geometry":{"type":"LineString","coordinates":[[2310,2059],[2174,2038],[2104,1884],[2125,1930]]}},{"type":"Feature","properties":{"id":74,"name":"Acovium","type":"Creek","dischargeFactor":null,"width":0.02,"parent":130},"geometry":{"type":"LineString","coordinates":[[4354,4801],[5079,4892],[5175,4912]]}},{"type":"Feature","properties":{"id":75,"name":"Weiltensberg","type":"River","dischargeFactor":null,"width":0.03,"parent":72},"geometry":{"type":"LineString","coordinates":[[660,566],[767,661],[667,662]]}},{"type":"Feature","properties":{"id":76,"name":"Steiamt","type":"Fork","dischargeFactor":null,"width":0.02,"parent":72},"geometry":{"type":"LineString","coordinates":[[769,783],[729,658],[598,488]]}},{"type":"Feature","properties":{"id":77,"name":"Ofrinweisach","type":"River","dischargeFactor":null,"width":0.08,"parent":136},"geometry":{"type":"LineString","coordinates":[[379,322],[382,380],[366,259],[300,282]]}},{"type":"Feature","properties":{"id":78,"name":"Stein","type":"River","dischargeFactor":null,"width":0.07,"parent":137},"geometry":{"type":"LineString","coordinates":[[252,344],[312,217],[259,275],[236,153]]}},{"type":"Feature","properties":{"id":79,"name":"Apen","type":"River","dischargeFactor":null,"width":0.04,"parent":138},"geometry":{"type":"LineString","coordinates":[[351,285],[278,220],[254,256]]}},{"type":"Feature","properties":{"id":80,"name":"Todtmosfeld","type":"River","dischargeFactor":null,"width":0.03,"parent":139},"geometry":{"type":"LineString","coordinates":[[626,567],[626,543],[464,461]]}},{"type":"Feature","properties":{"id":81,"name":"Fronhoes","type":"River","dischargeFactor":null,"width":0.02,"parent":140},"geometry":{"type":"LineString","coordinates":[[643,669],[569,522],[633,619]]}},{"type":"Feature","properties":{"id":82,"name":"Acherken","type":"River","dischargeFactor":null,"width":0.05,"parent":141},"geometry":{"type":"LineString","coordinates":[[275,330],[163,177],[154,125]]}},{"type":"Feature","properties":{"id":83,"name":"Sorbakropa","type":"River","dischargeFactor":null,"width":0.04,"parent":142},"geometry":{"type":"LineString","coordinates":[[193,148],[116,100],[117,66]]}},{"type":"Feature","properties":{"id":84,"name":"Polbacum","type":"Brook","dischargeFactor":null,"width":0.02,"parent":143},"geometry":{"type":"LineString","coordinates":[[4470,4571],[4404,4591],[4762,4599]]}},{"type":"Feature","properties":{"id":85,"name":"Lentium","type":"River","dischargeFactor":null,"width":0.08,"parent":156},"geometry":{"type":"LineString","coordinates":[[3531,3316],[3737,3890],[3892,3731],[3975,3773],[3847,3730]]}},{"type":"Feature","properties":{"id":86,"name":"Belle","type":"River","dischargeFactor":null,"width":0.03,"parent":158},"geometry":{"type":"LineString","coordinates":[[272,365],[328,190],[291,201]]}},{"type":"Feature","properties":{"id":87,"name":"Mouneuf","type":"Creek","dischargeFactor":null,"width":0.02,"parent":160},"geometry":{"type":"LineString","coordinates":[[2444,2445],[2738,2608],[2729,2730]]}},{"type":"Feature","properties":{"id":88,"name":"Ebrongengen","type":"River","dischargeFactor":null,"width":0.03,"parent":161},"geometry":{"type":"LineString","coordinates":[[599,223],[272,273],[266,243]]}},{"type":"Feature","properties":{"id":89,"name":"Orvilleouiers","type":"River","dischargeFactor":null,"width":0.03,"parent":189},"geometry":{"type":"LineString","coordinates":[[1382,1293],[1560,1358],[1330,1231]]}},{"type":"Feature","properties":{"id":90,"name":"Monch","type":"Creek","dischargeFactor":null,"width":0.02,"parent":191},"geometry":{"type":"LineString","coordinates":[[656,540],[713,578],[638,556]]}},{"type":"Feature","properties":{"id":91,"name":"Lemovilodu","type":"River","dischargeFactor":null,"width":0.07,"parent":192},"geometry":{"type":"LineString","coordinates":[[5031,4607],[5134,4744],[5125,4790],[4891,4707]]}}]}